*******************************************************************************
JPL/HORIZONS                  ATLAS (C/2025 N1)            2025-Sep-28 06:49:01
Rec #:90004916 (+COV) Soln.date: 2025-Sep-08_18:29:13     # obs: 603 (104 days)
 
IAU76/J2000 helio. ecliptic osc. elements (au, days, deg., period=Julian yrs):
 
  EPOCH=  2460878.5 ! 2025-Jul-22.0000000 (TDB)    RMSW= n.a.
   EC= 6.139587836355706   QR= 1.356419039495192   TP= 2460977.9814392594
   OM= 322.1568699043938   W= 128.0099421020839    IN= 175.1131015287974
   A= -.26391591751781     MA= -3.18224798181177   ADIST= 9.999999E99
   PER= 9.999999E99        N= 7.269519353          ANGMOM= .053532183
   DAN= -3.48262           DDN= 2.02568            L= 194.0456433
   B= 3.8486331            MOID= .36415401         TP= 2025-Oct-29.4814392594
 
Comet physical (GM= km^3/s^2; RAD= km):
   GM= n.a.                RAD= n.a.
   M1=  12.3     M2=  n.a.     k1=  4.5    k2= n.a.     PHCOF= n.a.
COMET comments 
1: soln ref.= JPL#26, data arc: 2025-05-15 to 2025-08-27
2: k1=4.5;
*******************************************************************************


*******************************************************************************
Ephemeris / WWW_USER Sun Sep 28 06:49:02 2025 Pasadena, USA      / Horizons    
*******************************************************************************
Target body name: ATLAS (C/2025 N1)               {source: JPL#26}
Center body name: Earth (399)                     {source: DE441}
Center-site name: Cerro Paranal
*******************************************************************************
Start time      : A.D. 2025-Sep-20 22:00:00.0000 UT      
Stop  time      : A.D. 2025-Sep-21 04:00:00.0000 UT      
Step-size       : 1 minutes
*******************************************************************************
Target pole/equ : undefined
Target radii    : undefined                                                    
Center geodetic : 289.5957, -24.6272128, 2.63514  {E-lon(deg),Lat(deg),Alt(km)}
Center cylindric: 289.5957,5803.73915,-2642.69127 {E-lon(deg),Dxy(km),Dz(km)}
Center pole/equ : ITRF93                          {East-longitude positive}
Center radii    : 6378.137, 6378.137, 6356.752 km {Equator_a, b, pole_c}       
Target primary  : Sun
Vis. interferer : MOON (R_eq= 1737.400) km        {source: DE441}
Rel. light bend : Sun                             {source: DE441}
Rel. lght bnd GM: 1.3271E+11 km^3/s^2                                          
Small-body perts: Yes                             {source: SB441-N16}
Atmos refraction: NO (AIRLESS)
RA format       : HMS
Time format     : BOTH
Calendar mode   : Mixed Julian/Gregorian
RTS-only print  : NO       
EOP file        : eop.250926.p251223                                           
EOP coverage    : DATA-BASED 1962-JAN-20 TO 2025-SEP-26. PREDICTS-> 2025-DEC-22
Units conversion: 1 au= 149597870.700 km, c= 299792.458 km/s, 1 day= 86400.0 s 
Table cut-offs 1: Elevation ( 20.0deg=YES),Airmass (< 2.800=YES),Daylight (NO )
Table cut-offs 2: Solar elongation (  0.0,180.0=NO ),Local Hour Angle( 0.0=NO )
Table cut-offs 3: RA/DEC angular rate (     0.0=NO )                           
Table format    : Comma Separated Values (spreadsheet)
*******************************************************************************
Initial IAU76/J2000 heliocentric ecliptic osculating elements (au, days, deg.):
  EPOCH=  2460878.5 ! 2025-Jul-22.0000000 (TDB)    RMSW= n.a.                  
   EC= 6.139587836355706   QR= 1.356419039495192   TP= 2460977.9814392594      
   OM= 322.1568699043938   W= 128.0099421020839    IN= 175.1131015287974       
  Equivalent ICRF heliocentric cartesian coordinates (au, au/d):
   X=-1.616994368572366E-02  Y=-3.597814381333365E+00  Z=-1.278571631651561E+00
  VX=-1.386152884723053E-02 VY= 3.077166736535444E-02 VZ= 1.171310239604216E-02
Comet physical (GM= km^3/s^2; RAD= km):                                        
   GM= n.a.                RAD= n.a.                                           
   M1=  12.3     M2=  n.a.     k1=  4.5    k2= n.a.     PHCOF= n.a.            
************************************************************************************************************************************************************************************
 Date__(UT)__HR:MN:SS, Date_________JDUT, , , R.A._____(ICRF), DEC______(ICRF),  dRA*cosD, d(DEC)/dt,    T-mag,  N-mag,                r,       rdot,             delta,     deldot,
************************************************************************************************************************************************************************************
$$SOE
 2025-Sep-20 22:58:00, 2460939.456944444,C, , 14 45 23.279465, -12 07 01.74931,  -75.3890,  18.02058,   15.621,   n.a.,   1.951053189466,-44.8754674,  2.52914681689400, -3.7359365,
 2025-Sep-20 22:59:00, 2460939.457638889,C, , 14 45 23.193825, -12 07 01.44688,  -75.3858,  18.02107,   15.621,   n.a.,   1.951035190878,-44.8750969,  2.52914531858193, -3.7349283,
 2025-Sep-20 23:00:00, 2460939.458333333,N, , 14 45 23.108189, -12 07 01.14445,  -75.3825,  18.02156,   15.621,   n.a.,   1.951017192439,-44.8747264,  2.52914382067296, -3.7339265,
 2025-Sep-20 23:01:00, 2460939.459027778,N, , 14 45 23.022557, -12 07 00.84201,  -75.3793,  18.02204,   15.621,   n.a.,   1.950999194148,-44.8743559,  2.52914232316456, -3.7329311,
 2025-Sep-20 23:02:00, 2460939.459722222,N, , 14 45 22.936929, -12 07 00.53956,  -75.3760,  18.02252,   15.621,   n.a.,   1.950981196006,-44.8739853,  2.52914082605416, -3.7319420,
 2025-Sep-20 23:03:00, 2460939.460416667,N, , 14 45 22.851304, -12 07 00.23711,  -75.3727,  18.02300,   15.621,   n.a.,   1.950963198013,-44.8736148,  2.52913932933921, -3.7309593,
 2025-Sep-20 23:04:00, 2460939.461111111,N, , 14 45 22.765683, -12 06 59.93465,  -75.3695,  18.02347,   15.621,   n.a.,   1.950945200168,-44.8732442,  2.52913783301713, -3.7299831,
 2025-Sep-20 23:05:00, 2460939.461805556,N, , 14 45 22.680066, -12 06 59.63218,  -75.3662,  18.02394,   15.621,   n.a.,   1.950927202472,-44.8728737,  2.52913633708535, -3.7290132,
 2025-Sep-20 23:06:00, 2460939.462500000,N, , 14 45 22.594452, -12 06 59.32970,  -75.3629,  18.02441,   15.621,   n.a.,   1.950909204925,-44.8725031,  2.52913484154128, -3.7280499,
 2025-Sep-20 23:07:00, 2460939.463194444,N, , 14 45 22.508843, -12 06 59.02721,  -75.3595,  18.02488,   15.621,   n.a.,   1.950891207526,-44.8721325,  2.52913334638232, -3.7270930,
 2025-Sep-20 23:08:00, 2460939.463888889,N, , 14 45 22.423237, -12 06 58.72472,  -75.3562,  18.02534,   15.621,   n.a.,   1.950873210276,-44.8717619,  2.52913185160587, -3.7261426,
 2025-Sep-20 23:09:00, 2460939.464583333,N, , 14 45 22.337635, -12 06 58.42222,  -75.3529,  18.02580,   15.621,   n.a.,   1.950855213175,-44.8713913,  2.52913035720931, -3.7251988,
 2025-Sep-20 23:10:00, 2460939.465277778,N, , 14 45 22.252036, -12 06 58.11971,  -75.3496,  18.02626,   15.621,   n.a.,   1.950837216222,-44.8710207,  2.52912886319004, -3.7242615,
 2025-Sep-20 23:11:00, 2460939.465972222,N, , 14 45 22.166442, -12 06 57.81719,  -75.3462,  18.02672,   15.621,   n.a.,   1.950819219419,-44.8706501,  2.52912736954542, -3.7233307,
 2025-Sep-20 23:12:00, 2460939.466666667,N, , 14 45 22.080851, -12 06 57.51467,  -75.3429,  18.02717,   15.621,   n.a.,   1.950801222764,-44.8702795,  2.52912587627281, -3.7224065,
 2025-Sep-20 23:13:00, 2460939.467361111,N, , 14 45 21.995265, -12 06 57.21213,  -75.3395,  18.02762,   15.621,   n.a.,   1.950783226257,-44.8699088,  2.52912438336957, -3.7214890,
 2025-Sep-20 23:14:00, 2460939.468055556,N, , 14 45 21.909682, -12 06 56.90960,  -75.3361,  18.02807,   15.621,   n.a.,   1.950765229899,-44.8695381,  2.52912289083306, -3.7205780,
 2025-Sep-20 23:15:00, 2460939.468750000,N, , 14 45 21.824103, -12 06 56.60705,  -75.3327,  18.02851,   15.621,   n.a.,   1.950747233691,-44.8691675,  2.52912139866061, -3.7196737,
 2025-Sep-20 23:16:00, 2460939.469444444,N, , 14 45 21.738527, -12 06 56.30450,  -75.3293,  18.02895,   15.621,   n.a.,   1.950729237630,-44.8687968,  2.52911990684955, -3.7187760,
 2025-Sep-20 23:17:00, 2460939.470138889,N, , 14 45 21.652956, -12 06 56.00194,  -75.3259,  18.02939,   15.621,   n.a.,   1.950711241719,-44.8684261,  2.52911841539721, -3.7178850,
 2025-Sep-20 23:18:00, 2460939.470833333,N, , 14 45 21.567389, -12 06 55.69937,  -75.3225,  18.02982,   15.621,   n.a.,   1.950693245956,-44.8680554,  2.52911692430092, -3.7170008,
 2025-Sep-20 23:19:00, 2460939.471527778,N, , 14 45 21.481825, -12 06 55.39679,  -75.3191,  18.03026,   15.621,   n.a.,   1.950675250342,-44.8676847,  2.52911543355797, -3.7161232,
 2025-Sep-20 23:20:00, 2460939.472222222,N, , 14 45 21.396266, -12 06 55.09421,  -75.3157,  18.03069,   15.621,   n.a.,   1.950657254877,-44.8673140,  2.52911394316568, -3.7152523,
 2025-Sep-20 23:21:00, 2460939.472916667,N, , 14 45 21.310710, -12 06 54.79162,  -75.3123,  18.03111,   15.621,   n.a.,   1.950639259560,-44.8669432,  2.52911245312133, -3.7143883,
 2025-Sep-20 23:22:00, 2460939.473611111,N, , 14 45 21.225159, -12 06 54.48903,  -75.3088,  18.03154,   15.621,   n.a.,   1.950621264392,-44.8665725,  2.52911096342222, -3.7135309,
 2025-Sep-20 23:23:00, 2460939.474305556,N, , 14 45 21.139611, -12 06 54.18642,  -75.3054,  18.03196,   15.621,   n.a.,   1.950603269373,-44.8662017,  2.52910947406563, -3.7126804,
 2025-Sep-20 23:24:00, 2460939.475000000,N, , 14 45 21.054067, -12 06 53.88382,  -75.3019,  18.03238,   15.621,   n.a.,   1.950585274503,-44.8658309,  2.52910798504882, -3.7118367,
 2025-Sep-20 23:25:00, 2460939.475694444,N, , 14 45 20.968527, -12 06 53.58120,  -75.2984,  18.03279,   15.621,   n.a.,   1.950567279782,-44.8654602,  2.52910649636908, -3.7109998,
 2025-Sep-20 23:26:00, 2460939.476388889,N, , 14 45 20.882991, -12 06 53.27858,  -75.2950,  18.03320,   15.621,   n.a.,   1.950549285209,-44.8650894,  2.52910500802365, -3.7101697,
